start=new Date('2023-01-30T00:00:00.000Z').valueOf();
sats=[{"APOAPSIS":"540.409","INCLINATION":"53.2137","REF_FRAME":"TEME","TIME_SYSTEM":"UTC","MEAN_ELEMENT_THEORY":"SGP4","CENTER_NAME":"EARTH","RA_OF_ASC_NODE":"283.5524","SITE":"AFETR","FILE":"3765015","EPOCH":"2023-01-29T20:45:31.111488","REV_AT_EPOCH":"6730","SEMIMAJOR_AXIS":"6917.895","TLE_LINE2":"2 49424  53.2137 283.5524 0000937  92.4311 267.6788 15.08835079 67300","OBJECT_ID":"2021-104S","LAUNCH_DATE":"2021-11-13","NORAD_CAT_ID":"49424","PERIAPSIS":"539.112","ARG_OF_PERICENTER":"92.4311","DECAY_DATE":null,"PERIOD":"95.438","MEAN_MOTION_DOT":"-0.00000230","COUNTRY_CODE":"US","GP_ID":"223957007","ELEMENT_SET_NO":"999","BSTAR":"0.00000359860000","MEAN_MOTION":"15.08835079","OBJECT_NAME":"STARLINK-3135","TLE_LINE1":"1 49424U 21104S   23029.86494342 -.00000230  00000-0  35986-5 0  9999","CLASSIFICATION_TYPE":"U","MEAN_ANOMALY":"267.6788","EPHEMERIS_TYPE":"0","ECCENTRICITY":"0.00009370","MEAN_MOTION_DDOT":"0.0000000000000","OBJECT_TYPE":"PAYLOAD","RCS_SIZE":"LARGE"},{"ARG_OF_PERICENTER":"77.2386","PERIAPSIS":"538.923","DECAY_DATE":null,"EPOCH":"2023-01-29T20:24:19.268064","LAUNCH_DATE":"2021-11-13","NORAD_CAT_ID":"49425","REV_AT_EPOCH":"6731","SEMIMAJOR_AXIS":"6917.861","TLE_LINE2":"2 49425  53.2131 283.6204 0001161  77.2386 282.8736 15.08846255 67315","OBJECT_ID":"2021-104T","CENTER_NAME":"EARTH","TIME_SYSTEM":"UTC","MEAN_ELEMENT_THEORY":"SGP4","RA_OF_ASC_NODE":"283.6204","FILE":"3765015","SITE":"AFETR","APOAPSIS":"540.529","REF_FRAME":"TEME","INCLINATION":"53.2131","MEAN_MOTION_DDOT":"0.0000000000000","RCS_SIZE":"LARGE","OBJECT_TYPE":"PAYLOAD","CLASSIFICATION_TYPE":"U","MEAN_ANOMALY":"282.8736","EPHEMERIS_TYPE":"0","OBJECT_NAME":"STARLINK-3139","TLE_LINE1":"1 49425U 21104T   23029.85022301  .00007420  00000-0  48371-3 0  9998","ECCENTRICITY":"0.00011610","GP_ID":"223957759","ELEMENT_SET_NO":"999","MEAN_MOTION":"15.08846255","BSTAR":"0.00048371000000","MEAN_MOTION_DOT":"0.00007420","PERIOD":"95.437","COUNTRY_CODE":"US"},{"INCLINATION":"53.2137","REF_FRAME":"TEME","APOAPSIS":"540.653","RA_OF_ASC_NODE":"283.5825","MEAN_ELEMENT_THEORY":"SGP4","CENTER_NAME":"EARTH","TIME_SYSTEM":"UTC","FILE":"3764959","SITE":"AFETR","EPOCH":"2023-01-29T20:34:55.103808","NORAD_CAT_ID":"49426","LAUNCH_DATE":"2021-11-13","TLE_LINE2":"2 49426  53.2137 283.5825 0001326  86.4667 273.6477 15.08843292 68383","OBJECT_ID":"2021-104U","REV_AT_EPOCH":"6838","SEMIMAJOR_AXIS":"6917.870","ARG_OF_PERICENTER":"86.4667","PERIAPSIS":"538.818","DECAY_DATE":null,"MEAN_MOTION_DOT":"0.00002209","PERIOD":"95.437","COUNTRY_CODE":"US","ELEMENT_SET_NO":"999","GP_ID":"223933223","BSTAR":"0.00015683000000","MEAN_MOTION":"15.08843292","EPHEMERIS_TYPE":"0","MEAN_ANOMALY":"273.6477","CLASSIFICATION_TYPE":"U","TLE_LINE1":"1 49426U 21104U   23029.85758222  .00002209  00000-0  15683-3 0  9997","OBJECT_NAME":"STARLINK-3114","ECCENTRICITY":"0.00013260","MEAN_MOTION_DDOT":"0.0000000000000","RCS_SIZE":"LARGE","OBJECT_TYPE":"PAYLOAD"},{"COUNTRY_CODE":"US","PERIOD":"95.437","MEAN_MOTION_DOT":"0.00004787","BSTAR":"0.00031859000000","MEAN_MOTION":"15.08845296","ELEMENT_SET_NO":"999","GP_ID":"223957257","ECCENTRICITY":"0.00013920","TLE_LINE1":"1 49427U 21104V   23029.84654278  .00004787  00000-0  31859-3 0  9999","OBJECT_NAME":"STARLINK-3131","EPHEMERIS_TYPE":"0","MEAN_ANOMALY":"279.8459","CLASSIFICATION_TYPE":"U","OBJECT_TYPE":"PAYLOAD","RCS_SIZE":"LARGE","MEAN_MOTION_DDOT":"0.0000000000000","INCLINATION":"53.2135","REF_FRAME":"TEME","APOAPSIS":"540.692","SITE":"AFETR","FILE":"3765015","RA_OF_ASC_NODE":"283.6349","TIME_SYSTEM":"UTC","MEAN_ELEMENT_THEORY":"SGP4","CENTER_NAME":"EARTH","TLE_LINE2":"2 49427  53.2135 283.6349 0001392  80.2690 279.8459 15.08845296 67311","OBJECT_ID":"2021-104V","REV_AT_EPOCH":"6731","SEMIMAJOR_AXIS":"6917.864","NORAD_CAT_ID":"49427","LAUNCH_DATE":"2021-11-13","EPOCH":"2023-01-29T20:19:01.296192","DECAY_DATE":null,"PERIAPSIS":"538.766","ARG_OF_PERICENTER":"80.2690"},{"APOAPSIS":"540.644","REF_FRAME":"TEME","INCLINATION":"53.2127","CENTER_NAME":"EARTH","MEAN_ELEMENT_THEORY":"SGP4","TIME_SYSTEM":"UTC","RA_OF_ASC_NODE":"283.6837","FILE":"3765015","SITE":"AFETR","EPOCH":"2023-01-29T20:04:31.734624","LAUNCH_DATE":"2021-11-13","NORAD_CAT_ID":"49428","SEMIMAJOR_AXIS":"6917.823","REV_AT_EPOCH":"6731","OBJECT_ID":"2021-104W","TLE_LINE2":"2 49428  53.2127 283.6837 0001382  76.5045 283.6101 15.08858918 67318","ARG_OF_PERICENTER":"76.5045","PERIAPSIS":"538.732","DECAY_DATE":null,"MEAN_MOTION_DOT":"0.00023548","PERIOD":"95.436","COUNTRY_CODE":"US","GP_ID":"223957507","ELEMENT_SET_NO":"999","MEAN_MOTION":"15.08858918","BSTAR":"0.00149190000000","CLASSIFICATION_TYPE":"U","MEAN_ANOMALY":"283.6101","EPHEMERIS_TYPE":"0","OBJECT_NAME":"STARLINK-3121","TLE_LINE1":"1 49428U 21104W   23029.83647841  .00023548  00000-0  14919-2 0  9990","ECCENTRICITY":"0.00013820","MEAN_MOTION_DDOT":"0.0000000000000","RCS_SIZE":"LARGE","OBJECT_TYPE":"PAYLOAD"},{"REF_FRAME":"TEME","INCLINATION":"53.2126","APOAPSIS":"540.564","RA_OF_ASC_NODE":"283.6546","MEAN_ELEMENT_THEORY":"SGP4","TIME_SYSTEM":"UTC","CENTER_NAME":"EARTH","FILE":"3764956","SITE":"AFETR","EPOCH":"2023-01-29T20:13:43.393440","NORAD_CAT_ID":"49430","LAUNCH_DATE":"2021-11-13","TLE_LINE2":"2 49430  53.2126 283.6546 0001224  76.6473 283.4655 15.08849095 68384","OBJECT_ID":"2021-104Y","SEMIMAJOR_AXIS":"6917.853","REV_AT_EPOCH":"6838","ARG_OF_PERICENTER":"76.6473","PERIAPSIS":"538.871","DECAY_DATE":null,"MEAN_MOTION_DOT":"0.00004760","PERIOD":"95.437","COUNTRY_CODE":"US","ELEMENT_SET_NO":"999","GP_ID":"223933195","BSTAR":"0.00031688000000","MEAN_MOTION":"15.08849095","EPHEMERIS_TYPE":"0","MEAN_ANOMALY":"283.4655","CLASSIFICATION_TYPE":"U","TLE_LINE1":"1 49430U 21104Y   23029.84286335  .00004760  00000-0  31688-3 0  9999","OBJECT_NAME":"STARLINK-3138","ECCENTRICITY":"0.00012240","MEAN_MOTION_DDOT":"0.0000000000000","RCS_SIZE":"LARGE","OBJECT_TYPE":"PAYLOAD"},{"INCLINATION":"53.2124","REF_FRAME":"TEME","APOAPSIS":"540.539","SITE":"AFETR","FILE":"3765015","RA_OF_ASC_NODE":"283.5374","TIME_SYSTEM":"UTC","MEAN_ELEMENT_THEORY":"SGP4","CENTER_NAME":"EARTH","TLE_LINE2":"2 49431  53.2124 283.5374 0001129 101.5093 258.6026 15.08835802 67310","OBJECT_ID":"2021-104Z","REV_AT_EPOCH":"6731","SEMIMAJOR_AXIS":"6917.893","NORAD_CAT_ID":"49431","LAUNCH_DATE":"2021-11-13","EPOCH":"2023-01-29T20:52:11.914176","DECAY_DATE":null,"PERIAPSIS":"538.977","ARG_OF_PERICENTER":"101.5093","COUNTRY_CODE":"US","PERIOD":"95.438","MEAN_MOTION_DOT":"0.00002746","MEAN_MOTION":"15.08835802","BSTAR":"0.00019055000000","GP_ID":"223958010","ELEMENT_SET_NO":"999","ECCENTRICITY":"0.00011290","TLE_LINE1":"1 49431U 21104Z   23029.86958234  .00002746  00000-0  19055-3 0  9992","OBJECT_NAME":"STARLINK-3153","EPHEMERIS_TYPE":"0","MEAN_ANOMALY":"258.6026","CLASSIFICATION_TYPE":"U","OBJECT_TYPE":"PAYLOAD","RCS_SIZE":"LARGE","MEAN_MOTION_DDOT":"0.0000000000000"},{"OBJECT_NAME":"STARLINK-3158","TLE_LINE1":"1 49432U 21104AA  23029.94041969  .00002615  00000-0  18231-3 0  9990","CLASSIFICATION_TYPE":"U","EPHEMERIS_TYPE":"0","MEAN_ANOMALY":"277.1071","ECCENTRICITY":"0.00013760","MEAN_MOTION_DDOT":"0.0000000000000","OBJECT_TYPE":"PAYLOAD","RCS_SIZE":"LARGE","PERIOD":"95.437","MEAN_MOTION_DOT":"0.00002615","COUNTRY_CODE":"US","GP_ID":"223956759","ELEMENT_SET_NO":"999","BSTAR":"0.00018231000000","MEAN_MOTION":"15.08845047","EPOCH":"2023-01-29T22:34:12.261216","SEMIMAJOR_AXIS":"6917.865","REV_AT_EPOCH":"6746","TLE_LINE2":"2 49432  53.2154 273.2008 0001376  83.0078 277.1071 15.08845047 67469","OBJECT_ID":"2021-104AA","LAUNCH_DATE":"2021-11-13","NORAD_CAT_ID":"49432","PERIAPSIS":"538.778","ARG_OF_PERICENTER":"83.0078","DECAY_DATE":null,"APOAPSIS":"540.682","INCLINATION":"53.2154","REF_FRAME":"TEME","TIME_SYSTEM":"UTC","MEAN_ELEMENT_THEORY":"SGP4","CENTER_NAME":"EARTH","RA_OF_ASC_NODE":"273.2008","SITE":"AFETR","FILE":"3765015"},{"RCS_SIZE":"LARGE","OBJECT_TYPE":"PAYLOAD","MEAN_MOTION_DDOT":"0.0000000000000","ECCENTRICITY":"0.00011620","EPHEMERIS_TYPE":"0","MEAN_ANOMALY":"268.8583","CLASSIFICATION_TYPE":"U","TLE_LINE1":"1 49433U 21104AB  23029.94038144  .00001889  00000-0  13672-3 0  9998","OBJECT_NAME":"STARLINK-3079","BSTAR":"0.00013672000000","MEAN_MOTION":"15.08842334","ELEMENT_SET_NO":"999","GP_ID":"223957008","COUNTRY_CODE":"US","MEAN_MOTION_DOT":"0.00001889","PERIOD":"95.437","DECAY_DATE":null,"PERIAPSIS":"538.934","ARG_OF_PERICENTER":"91.2543","NORAD_CAT_ID":"49433","LAUNCH_DATE":"2021-11-13","TLE_LINE2":"2 49433  53.2125 263.2127 0001162  91.2543 268.8583 15.08842334 68697","OBJECT_ID":"2021-104AB","REV_AT_EPOCH":"6869","SEMIMAJOR_AXIS":"6917.873","EPOCH":"2023-01-29T22:34:08.956416","FILE":"3765015","SITE":"AFETR","RA_OF_ASC_NODE":"263.2127","CENTER_NAME":"EARTH","TIME_SYSTEM":"UTC","MEAN_ELEMENT_THEORY":"SGP4","INCLINATION":"53.2125","REF_FRAME":"TEME","APOAPSIS":"540.542"},{"GP_ID":"223957760","ELEMENT_SET_NO":"999","BSTAR":"0.00032663000000","MEAN_MOTION":"15.08854364","MEAN_MOTION_DOT":"0.00004916","PERIOD":"95.437","COUNTRY_CODE":"US","MEAN_MOTION_DDOT":"0.0000000000000","RCS_SIZE":"LARGE","OBJECT_TYPE":"PAYLOAD","MEAN_ANOMALY":"272.7801","EPHEMERIS_TYPE":"0","CLASSIFICATION_TYPE":"U","TLE_LINE1":"1 49434U 21104AC  23029.83917620  .00004916  00000-0  32663-3 0  9997","OBJECT_NAME":"STARLINK-3134","ECCENTRICITY":"0.00014030","RA_OF_ASC_NODE":"283.6693","TIME_SYSTEM":"UTC","CENTER_NAME":"EARTH","MEAN_ELEMENT_THEORY":"SGP4","FILE":"3765015","SITE":"AFETR","REF_FRAME":"TEME","INCLINATION":"53.2130","APOAPSIS":"540.672","ARG_OF_PERICENTER":"87.3351","PERIAPSIS":"538.731","DECAY_DATE":null,"EPOCH":"2023-01-29T20:08:24.823680","NORAD_CAT_ID":"49434","LAUNCH_DATE":"2021-11-13","TLE_LINE2":"2 49434  53.2130 283.6693 0001403  87.3351 272.7801 15.08854364 68399","OBJECT_ID":"2021-104AC","REV_AT_EPOCH":"6839","SEMIMAJOR_AXIS":"6917.836"}];
